COSMOS 2426 (717)       
1 29671U 06062B   19321.72735325  .00000021  00000-0  10000-3 0  9996
2 29671  65.0522 275.0996 0020499 178.5548  61.5629  2.12962003100361
COSMOS 2433 (720)       
1 32275U 07052A   19321.71676736 -.00000047  00000-0  10000-3 0  9998
2 32275  65.9095  36.0111 0004257 230.5163  33.0781  2.13104518 93879
COSMOS 2432 (719)       
1 32276U 07052B   19321.60599734 -.00000046  00000-0  10000-3 0  9998
2 32276  65.9242  36.1052 0009229 321.3930 167.9246  2.13103664 93878
COSMOS 2434 (721)       
1 32393U 07065A   19321.86023942  .00000020  00000-0  00000-0 0  9990
2 32393  64.6580 273.7147 0001198 128.2666 132.8036  2.13103059 92583
COSMOS 2436 (723)       
1 32395U 07065C   19321.67303501  .00000021  00000-0  10000-3 0  9998
2 32395  64.6677 273.7732 0014913 331.6265 231.1618  2.13280893 92510
COSMOS 2456 (730)       
1 36111U 09070A   19322.41117537  .00000099  00000-0  00000+0 0  9991
2 36111  64.2051 153.3500 0002705 350.1555 146.8903  2.13102991 77268
COSMOS 2457 (733)       
1 36112U 09070B   19321.68740404  .00000095  00000-0  00000-0 0  9992
2 36112  64.1912 153.2728 0006567 147.3300 278.7575  2.13101594 77256
COSMOS 2459 (731)       
1 36400U 10007A   19321.68538255 -.00000047  00000-0  10000-3 0  9995
2 36400  65.8145  35.0142 0023945 348.4229 105.8314  2.13102062 75601
COSMOS 2461 (735)       
1 36401U 10007B   19322.29123525 -.00000050  00000-0  10000-3 0  9998
2 36401  65.8070  34.9635 0005825  79.0138  30.5340  2.13101925 75618
COSMOS 2460 (732)       
1 36402U 10007C   19322.46242418 -.00000051  00000-0  10000-3 0  9992
2 36402  65.7983  34.9206 0001912 197.6893  82.7349  2.13101448 75611
COSMOS 2464 (736)       
1 37139U 10041C   19321.50342583  .00000021  00000-0  00000-0 0  9998
2 37139  64.2591 273.2739 0025079   6.3741 206.1219  2.13100712 71667
COSMOS 2474 (742)       
1 37829U 11055A   19321.48501609  .00000094  00000-0  00000-0 0  9993
2 37829  64.5302 154.3178 0007979 241.4606 120.7637  2.13101943 63240
COSMOS 2476 (744)       
1 37867U 11064A   19321.41758264  .00000094  00000-0  00000+0 0  9998
2 37867  64.5075 154.3690 0017423 234.1965 122.4778  2.13101958 62587
COSMOS 2477 (745)       
1 37868U 11064B   19321.70193101  .00000095  00000-0  00000+0 0  9995
2 37868  64.5174 154.4120 0015028 234.7036 158.7293  2.13101835 62556
COSMOS 2475 (743)       
1 37869U 11064C   19322.40914065  .00000099  00000-0  00000+0 0  9998
2 37869  64.5242 154.3889 0018690 261.1654 272.0605  2.13102073 62576
COSMOS 2485 (747)       
1 39155U 13019A   19321.41115575  .00000094  00000-0  00000+0 0  9994
2 39155  64.6776 154.5912 0018067 229.2663 167.1586  2.13102049 51068
COSMOS 2492 (754)       
1 39620U 14012A   19321.23746389 -.00000046  00000-0  10000-3 0  9991
2 39620  65.6875  34.7732 0012574 319.6070 338.6478  2.13103362 44008
COSMOS 2500 (755)       
1 40001U 14032A   19322.40713023 -.00000051  00000-0  00000+0 0  9998
2 40001  65.6285  34.6663 0008163 204.3566 132.2715  2.13102492 42248
COSMOS 2501 (702K)      
1 40315U 14075A   19322.50845068  .00000015  00000-0  00000+0 0  9998
2 40315  63.9778 274.2603 0017006 212.0137 359.0387  2.13098573 38654
COSMOS 2514 (751)       
1 41330U 16008A   19321.40981521 -.00000047  00000-0  00000-0 0  9994
2 41330  65.4312  34.6243 0011567 212.3179 261.2180  2.13103040 29398
COSMOS 2516 (753)       
1 41554U 16032A   19321.72675137  .00000020  00000-0  00000-0 0  9997
2 41554  64.2004 274.2994 0014041 225.2211  22.0634  2.13101764 27000
COSMOS 2522 (752)       
1 42939U 17055A   19321.44916748  .00000021  00000-0  00000-0 0  9997
2 42939  64.4338 274.4275 0009464 251.9146   8.9376  2.13102059 16754
COSMOS 2527 (756)       
1 43508U 18053A   19322.31542778  .00000099  00000-0  00000+0 0  9998
2 43508  64.8368 154.3636 0005819 216.1428  20.7805  2.13102684 11069
COSMOS 2529 (757)       
1 43687U 18086A   19321.19767259  .00000022  00000-0  00000-0 0  9997
2 43687  64.6471 274.4983 0012086 270.9285 112.6551  2.13102070  8066
COSMOS 2534 (758)       
1 44299U 19030A   19322.52633845  .00000016  00000-0  00000+0 0  9990
2 44299  64.7157 274.2494 0015136 287.0472 171.0009  2.13101951  3732
